start=new Date('2022-10-20T00:00:00.000Z').valueOf();
sats=[{"TIME_SYSTEM":"UTC","MEAN_MOTION":"15.06392749","LAUNCH_DATE":"2021-05-26","ELEMENT_SET_NO":"999","CENTER_NAME":"EARTH","OBJECT_TYPE":"PAYLOAD","REF_FRAME":"TEME","FILE":"3623738","MEAN_MOTION_DDOT":"0.0000000000000","TLE_LINE2":"2 48652  53.0525 274.9409 0001871  48.1730 311.9419 15.06392749 77257","PERIAPSIS":"545.940","PERIOD":"95.593","OBJECT_NAME":"STARLINK-2727","MEAN_ANOMALY":"311.9419","OBJECT_ID":"2021-044Q","APOAPSIS":"548.532","MEAN_MOTION_DOT":"0.00001499","EPOCH":"2022-10-19T15:29:06.021312","ECCENTRICITY":"0.00018710","EPHEMERIS_TYPE":"0","INCLINATION":"53.0525","REV_AT_EPOCH":"7725","SEMIMAJOR_AXIS":"6925.371","DECAY_DATE":null,"CLASSIFICATION_TYPE":"U","NORAD_CAT_ID":"48652","ARG_OF_PERICENTER":"48.1730","COUNTRY_CODE":"US","GP_ID":"215620456","BSTAR":"0.00011957000000","SITE":"AFETR","RCS_SIZE":"LARGE","RA_OF_ASC_NODE":"274.9409","MEAN_ELEMENT_THEORY":"SGP4","TLE_LINE1":"1 48652U 21044Q   22292.64520858  .00001499  00000-0  11957-3 0  9990"},{"GP_ID":"215580423","BSTAR":"0.00004934500000","CLASSIFICATION_TYPE":"U","NORAD_CAT_ID":"48653","COUNTRY_CODE":"US","ARG_OF_PERICENTER":"50.0755","RA_OF_ASC_NODE":"276.1443","MEAN_ELEMENT_THEORY":"SGP4","TLE_LINE1":"1 48653U 21044R   22292.37613409  .00000453  00000-0  49345-4 0  9998","SITE":"AFETR","RCS_SIZE":"LARGE","EPOCH":"2022-10-19T09:01:37.985376","ECCENTRICITY":"0.00018390","EPHEMERIS_TYPE":"0","INCLINATION":"53.0547","REV_AT_EPOCH":"7721","DECAY_DATE":null,"SEMIMAJOR_AXIS":"6925.372","TLE_LINE2":"2 48653  53.0547 276.1443 0001839  50.0755 310.0395 15.06392392 77210","PERIAPSIS":"545.963","PERIOD":"95.593","MEAN_MOTION_DDOT":"0.0000000000000","MEAN_MOTION_DOT":"0.00000453","OBJECT_NAME":"STARLINK-2720","MEAN_ANOMALY":"310.0395","OBJECT_ID":"2021-044R","APOAPSIS":"548.510","TIME_SYSTEM":"UTC","MEAN_MOTION":"15.06392392","CENTER_NAME":"EARTH","OBJECT_TYPE":"PAYLOAD","REF_FRAME":"TEME","FILE":"3623062","LAUNCH_DATE":"2021-05-26","ELEMENT_SET_NO":"999"},{"INCLINATION":"53.0541","SEMIMAJOR_AXIS":"6925.348","DECAY_DATE":null,"REV_AT_EPOCH":"7721","ECCENTRICITY":"0.00014620","EPHEMERIS_TYPE":"0","EPOCH":"2022-10-19T08:56:19.763808","RA_OF_ASC_NODE":"276.1612","MEAN_ELEMENT_THEORY":"SGP4","TLE_LINE1":"1 48654U 21044S   22292.37245097 -.00000633  00000-0 -23577-4 0  9994","RCS_SIZE":"LARGE","SITE":"AFETR","GP_ID":"215579171","BSTAR":"-0.00002357700000","ARG_OF_PERICENTER":"65.3416","COUNTRY_CODE":"US","CLASSIFICATION_TYPE":"U","NORAD_CAT_ID":"48654","CENTER_NAME":"EARTH","FILE":"3623062","REF_FRAME":"TEME","OBJECT_TYPE":"PAYLOAD","LAUNCH_DATE":"2021-05-26","ELEMENT_SET_NO":"999","TIME_SYSTEM":"UTC","MEAN_MOTION":"15.06400293","MEAN_MOTION_DOT":"-0.00000633","MEAN_ANOMALY":"294.7725","OBJECT_NAME":"STARLINK-2651","APOAPSIS":"548.225","OBJECT_ID":"2021-044S","TLE_LINE2":"2 48654  53.0541 276.1612 0001462  65.3416 294.7725 15.06400293 77213","PERIAPSIS":"546.200","PERIOD":"95.592","MEAN_MOTION_DDOT":"0.0000000000000"},{"MEAN_ANOMALY":"315.2897","OBJECT_NAME":"STARLINK-2657","OBJECT_ID":"2021-044T","APOAPSIS":"548.593","MEAN_MOTION_DOT":"0.00000659","MEAN_MOTION_DDOT":"0.0000000000000","TLE_LINE2":"2 48655  53.0554 276.1786 0002008  44.8254 315.2897 15.06403618 77212","PERIAPSIS":"545.812","PERIOD":"95.592","LAUNCH_DATE":"2021-05-26","ELEMENT_SET_NO":"999","CENTER_NAME":"EARTH","FILE":"3623062","OBJECT_TYPE":"PAYLOAD","REF_FRAME":"TEME","TIME_SYSTEM":"UTC","MEAN_MOTION":"15.06403618","RCS_SIZE":"LARGE","SITE":"AFETR","RA_OF_ASC_NODE":"276.1786","MEAN_ELEMENT_THEORY":"SGP4","TLE_LINE1":"1 48655U 21044T   22292.36875985  .00000659  00000-0  63130-4 0  9994","COUNTRY_CODE":"US","ARG_OF_PERICENTER":"44.8254","NORAD_CAT_ID":"48655","CLASSIFICATION_TYPE":"U","GP_ID":"215579421","BSTAR":"0.00006313000000","INCLINATION":"53.0554","SEMIMAJOR_AXIS":"6925.337","DECAY_DATE":null,"REV_AT_EPOCH":"7721","ECCENTRICITY":"0.00020080","EPHEMERIS_TYPE":"0","EPOCH":"2022-10-19T08:51:00.851040"},{"EPOCH":"2022-10-19T08:45:42.594048","EPHEMERIS_TYPE":"0","ECCENTRICITY":"0.00018700","INCLINATION":"53.0550","REV_AT_EPOCH":"7721","SEMIMAJOR_AXIS":"6925.351","DECAY_DATE":null,"BSTAR":"0.00005744600000","GP_ID":"215580672","NORAD_CAT_ID":"48656","CLASSIFICATION_TYPE":"U","COUNTRY_CODE":"US","ARG_OF_PERICENTER":"43.4444","RA_OF_ASC_NODE":"276.1967","MEAN_ELEMENT_THEORY":"SGP4","TLE_LINE1":"1 48656U 21044U   22292.36507632  .00000574  00000-0  57446-4 0  9995","SITE":"AFETR","RCS_SIZE":"LARGE","TIME_SYSTEM":"UTC","MEAN_MOTION":"15.06399282","CENTER_NAME":"EARTH","REF_FRAME":"TEME","OBJECT_TYPE":"PAYLOAD","FILE":"3623062","LAUNCH_DATE":"2021-05-26","ELEMENT_SET_NO":"999","TLE_LINE2":"2 48656  53.0550 276.1967 0001870  43.4444 316.6692 15.06399282 77211","PERIAPSIS":"545.921","PERIOD":"95.592","MEAN_MOTION_DDOT":"0.0000000000000","MEAN_MOTION_DOT":"0.00000574","OBJECT_NAME":"STARLINK-2701","MEAN_ANOMALY":"316.6692","APOAPSIS":"548.511","OBJECT_ID":"2021-044U"},{"PERIOD":"95.592","PERIAPSIS":"545.957","TLE_LINE2":"2 48657  53.0550 276.2007 0001817  52.6632 307.4522 15.06399346 78111","MEAN_MOTION_DDOT":"0.0000000000000","MEAN_MOTION_DOT":"0.00000507","OBJECT_ID":"2021-044V","APOAPSIS":"548.474","MEAN_ANOMALY":"307.4522","OBJECT_NAME":"STARLINK-2734","MEAN_MOTION":"15.06399346","TIME_SYSTEM":"UTC","FILE":"3623145","OBJECT_TYPE":"PAYLOAD","REF_FRAME":"TEME","CENTER_NAME":"EARTH","ELEMENT_SET_NO":"999","LAUNCH_DATE":"2021-05-26","BSTAR":"0.00005297200000","GP_ID":"215585675","ARG_OF_PERICENTER":"52.6632","COUNTRY_CODE":"US","NORAD_CAT_ID":"48657","CLASSIFICATION_TYPE":"U","TLE_LINE1":"1 48657U 21044V   22292.36139147  .00000507  00000-0  52972-4 0  9993","RA_OF_ASC_NODE":"276.2007","MEAN_ELEMENT_THEORY":"SGP4","RCS_SIZE":"LARGE","SITE":"AFETR","EPHEMERIS_TYPE":"0","ECCENTRICITY":"0.00018170","EPOCH":"2022-10-19T08:40:24.223008","DECAY_DATE":null,"SEMIMAJOR_AXIS":"6925.351","REV_AT_EPOCH":"7811","INCLINATION":"53.0550"},{"ARG_OF_PERICENTER":"44.6380","COUNTRY_CODE":"US","NORAD_CAT_ID":"48658","CLASSIFICATION_TYPE":"U","GP_ID":"215579671","BSTAR":"0.00000166240000","RCS_SIZE":"LARGE","SITE":"AFETR","RA_OF_ASC_NODE":"276.2277","MEAN_ELEMENT_THEORY":"SGP4","TLE_LINE1":"1 48658U 21044W   22292.35770363 -.00000257  00000-0  16624-5 0  9992","ECCENTRICITY":"0.00019820","EPHEMERIS_TYPE":"0","EPOCH":"2022-10-19T08:35:05.593632","INCLINATION":"53.0523","DECAY_DATE":null,"SEMIMAJOR_AXIS":"6925.346","REV_AT_EPOCH":"7721","MEAN_MOTION_DDOT":"0.0000000000000","TLE_LINE2":"2 48658  53.0523 276.2277 0001982  44.6380 315.4769 15.06400784 77216","PERIOD":"95.592","PERIAPSIS":"545.839","MEAN_ANOMALY":"315.4769","OBJECT_NAME":"STARLINK-2647","OBJECT_ID":"2021-044W","APOAPSIS":"548.584","MEAN_MOTION_DOT":"-0.00000257","TIME_SYSTEM":"UTC","MEAN_MOTION":"15.06400784","LAUNCH_DATE":"2021-05-26","ELEMENT_SET_NO":"999","CENTER_NAME":"EARTH","FILE":"3623062","REF_FRAME":"TEME","OBJECT_TYPE":"PAYLOAD"},{"ARG_OF_PERICENTER":"46.3220","COUNTRY_CODE":"US","CLASSIFICATION_TYPE":"U","NORAD_CAT_ID":"48659","GP_ID":"215579921","BSTAR":"0.00004705100000","RCS_SIZE":"LARGE","SITE":"AFETR","TLE_LINE1":"1 48659U 21044X   22292.22131585  .00000419  00000-0  47051-4 0  9992","RA_OF_ASC_NODE":"276.8386","MEAN_ELEMENT_THEORY":"SGP4","ECCENTRICITY":"0.00021080","EPHEMERIS_TYPE":"0","EPOCH":"2022-10-19T05:18:41.689440","SEMIMAJOR_AXIS":"6925.348","DECAY_DATE":null,"REV_AT_EPOCH":"7719","INCLINATION":"53.0560","MEAN_MOTION_DDOT":"0.0000000000000","PERIOD":"95.592","PERIAPSIS":"545.753","TLE_LINE2":"2 48659  53.0560 276.8386 0002108  46.3220 313.7944 15.06400152 77190","OBJECT_ID":"2021-044X","APOAPSIS":"548.673","MEAN_ANOMALY":"313.7944","OBJECT_NAME":"STARLINK-2717","MEAN_MOTION_DOT":"0.00000419","MEAN_MOTION":"15.06400152","TIME_SYSTEM":"UTC","ELEMENT_SET_NO":"999","LAUNCH_DATE":"2021-05-26","FILE":"3623062","REF_FRAME":"TEME","OBJECT_TYPE":"PAYLOAD","CENTER_NAME":"EARTH"},{"OBJECT_ID":"2021-044Y","APOAPSIS":"548.400","OBJECT_NAME":"STARLINK-2688","MEAN_ANOMALY":"299.5189","MEAN_MOTION_DOT":"0.00000415","MEAN_MOTION_DDOT":"0.0000000000000","PERIOD":"95.592","PERIAPSIS":"546.056","TLE_LINE2":"2 48660  53.0550 274.7683 0001692  60.5969 299.5189 15.06395233 77266","ELEMENT_SET_NO":"999","LAUNCH_DATE":"2021-05-26","REF_FRAME":"TEME","OBJECT_TYPE":"PAYLOAD","FILE":"3623738","CENTER_NAME":"EARTH","MEAN_MOTION":"15.06395233","TIME_SYSTEM":"UTC","SITE":"AFETR","RCS_SIZE":"LARGE","TLE_LINE1":"1 48660U 21044Y   22292.68206735  .00000415  00000-0  46735-4 0  9998","MEAN_ELEMENT_THEORY":"SGP4","RA_OF_ASC_NODE":"274.7683","CLASSIFICATION_TYPE":"U","NORAD_CAT_ID":"48660","COUNTRY_CODE":"US","ARG_OF_PERICENTER":"60.5969","BSTAR":"0.00004673500000","GP_ID":"215620457","REV_AT_EPOCH":"7726","SEMIMAJOR_AXIS":"6925.363","DECAY_DATE":null,"INCLINATION":"53.0550","EPOCH":"2022-10-19T16:22:10.619040","ECCENTRICITY":"0.00016920","EPHEMERIS_TYPE":"0"},{"TIME_SYSTEM":"UTC","MEAN_MOTION":"15.06391656","CENTER_NAME":"EARTH","OBJECT_TYPE":"PAYLOAD","REF_FRAME":"TEME","FILE":"3623738","LAUNCH_DATE":"2021-05-26","ELEMENT_SET_NO":"999","TLE_LINE2":"2 48661  53.0533 265.0437 0002352  49.9604 310.1591 15.06391656 77395","PERIAPSIS":"545.610","PERIOD":"95.593","MEAN_MOTION_DDOT":"0.0000000000000","MEAN_MOTION_DOT":"-0.00001090","OBJECT_NAME":"STARLINK-2708","MEAN_ANOMALY":"310.1591","OBJECT_ID":"2021-044Z","APOAPSIS":"548.868","EPOCH":"2022-10-19T14:47:58.607520","ECCENTRICITY":"0.00023520","EPHEMERIS_TYPE":"0","INCLINATION":"53.0533","REV_AT_EPOCH":"7739","DECAY_DATE":null,"SEMIMAJOR_AXIS":"6925.374","BSTAR":"-0.00005424300000","GP_ID":"215620707","NORAD_CAT_ID":"48661","CLASSIFICATION_TYPE":"U","COUNTRY_CODE":"US","ARG_OF_PERICENTER":"49.9604","MEAN_ELEMENT_THEORY":"SGP4","RA_OF_ASC_NODE":"265.0437","TLE_LINE1":"1 48661U 21044Z   22292.61665055 -.00001090  00000-0 -54243-4 0  9991","SITE":"AFETR","RCS_SIZE":"LARGE"}];
